KUIPER-00500            
1 68882U 26095U   26198.48631186  .00000880  00000+0  14443-3 0  9991
2 68882  51.9021 116.6736 0001325  46.1664 313.9408 14.79930365 12109
KUIPER-00502            
1 68883U 26095V   26198.91668981 -.01046338  00000+0 -50224-1 0  9999
2 68883  51.8853  94.1080 0006203  49.6143 258.0419 15.21331821  2531
KUIPER-00503            
1 68884U 26095W   26198.92794943  .00001655  00000+0  24598-3 0  9996
2 68884  51.8981 112.2123 0000849 101.8665 258.2393 14.79943929 12202
KUIPER-00504            
1 68885U 26095X   26198.48091889 -.00000196  00000+0  33160-5 0  9994
2 68885  51.9021 121.6983 0000989  81.9154 278.1920 14.79934864 12039
KUIPER-00505            
1 68886U 26095Y   26198.93064245  .00001638  00000+0  24381-3 0  9995
2 68886  51.9023 109.7131 0000615  95.2883 264.8149 14.79932993 12235
KUIPER-00507            
1 68887U 26095Z   26198.91668981 -.00094002  00000+0 -12101-1 0  9995
2 68887  51.8979  99.5071 0000827 217.5294 235.1337 14.81204669  5848
KUIPER-00511            
1 68888U 26095AA  26198.91668981 -.01791730  00000+0 -10793+0 0  9992
2 68888  51.8907  94.5953 0006154  44.2386 335.6953 15.13639153  1921
KUIPER-00512            
1 68889U 26095AB  26198.75911947 -.00000111  00000+0  14411-4 0  9998
2 68889  51.9024 112.9708 0000910 105.6985 254.4078 14.79926835 12179
KUIPER-00519            
1 68890U 26095AC  26198.90500601  .00001525  00000+0  22899-3 0  9995
2 68890  51.9032 102.3867 0002618  20.0765 340.0300 14.79942427 12335
KUIPER-00521            
1 68891U 26095AD  26198.91668981 -.00055913  00000+0 -50143-2 0  9997
2 68891  51.8951  96.5150 0003024 256.7895 292.0993 14.95487849  4984
KUIPER-00524            
1 68892U 26095AE  26198.89486662  .00000852  00000+0  15209-3 0  9994
2 68892  51.8989 103.7473 0002334 110.9070 249.2141 14.76418040 12315
KUIPER-00370            
1 68919U 26098A   26198.91668981 -.00050453  00000+0 -31791-2 0  9993
2 68919  51.8799 283.5666 0010667 274.3756 129.6371 15.08700077  5340
KUIPER-00380            
1 68920U 26098B   26198.25907625 -.00001565  00000+0 -41629-4 0  9996
2 68920  51.8746 284.4952 0006703 267.7575  92.2641 15.29387868 11943
KUIPER-00386            
1 68921U 26098C   26198.91668981 -.00078115  00000+0 -35784-2 0  9997
2 68921  51.8817 279.7140 0002073  12.2597 121.5861 15.20227447  5470
KUIPER-00388            
1 68922U 26098D   26198.91668981 -.00102365  00000+0 -13434-1 0  9990
2 68922  51.8997 287.0734 0007436 288.6605  32.1284 14.80433992  5844
KUIPER-00405            
1 68923U 26098E   26198.91668981 -.00092757  00000+0 -97574-2 0  9992
2 68923  51.8988 284.8505 0008824 279.7227  87.5555 14.89422402  5207
