{"fetched_at":"2026-07-18T06:27:44.179Z","source":"https://celestrak.org/NORAD/elements/gp.php?GROUP=kuiper&FORMAT=JSON","constellation":"kuiper","records":[{"OBJECT_NAME":"KUIPER-00500","OBJECT_ID":"2026-095U","EPOCH":"2026-07-17T11:40:17.344704","CLASSIFICATION_TYPE":"U","MEAN_MOTION":14.79930365,"ECCENTRICITY":0.0001325,"INCLINATION":51.9021,"RA_OF_ASC_NODE":116.6736,"ARG_OF_PERICENTER":46.1664,"MEAN_ANOMALY":313.9408,"EPHEMERIS_TYPE":0,"NORAD_CAT_ID":68882,"ELEMENT_SET_NO":999,"REV_AT_EPOCH":1210,"BSTAR":0.00014443,"MEAN_MOTION_DOT":0.0000088,"MEAN_MOTION_DDOT":0},{"OBJECT_NAME":"KUIPER-00502","OBJECT_ID":"2026-095V","EPOCH":"2026-07-17T22:00:01.999584","CLASSIFICATION_TYPE":"U","MEAN_MOTION":15.21331821,"ECCENTRICITY":0.00062036,"INCLINATION":51.8853,"RA_OF_ASC_NODE":94.108,"ARG_OF_PERICENTER":49.6143,"MEAN_ANOMALY":258.0419,"EPHEMERIS_TYPE":0,"NORAD_CAT_ID":68883,"ELEMENT_SET_NO":999,"REV_AT_EPOCH":253,"BSTAR":-0.050224099,"MEAN_MOTION_DOT":-0.01046338,"MEAN_MOTION_DDOT":0},{"OBJECT_NAME":"KUIPER-00503","OBJECT_ID":"2026-095W","EPOCH":"2026-07-17T22:16:14.830752","CLASSIFICATION_TYPE":"U","MEAN_MOTION":14.79943929,"ECCENTRICITY":0.00008491,"INCLINATION":51.8981,"RA_OF_ASC_NODE":112.2123,"ARG_OF_PERICENTER":101.8665,"MEAN_ANOMALY":258.2393,"EPHEMERIS_TYPE":0,"NORAD_CAT_ID":68884,"ELEMENT_SET_NO":999,"REV_AT_EPOCH":1220,"BSTAR":0.00024598018,"MEAN_MOTION_DOT":0.00001655,"MEAN_MOTION_DDOT":0},{"OBJECT_NAME":"KUIPER-00504","OBJECT_ID":"2026-095X","EPOCH":"2026-07-17T11:32:31.392096","CLASSIFICATION_TYPE":"U","MEAN_MOTION":14.79934864,"ECCENTRICITY":0.0000989,"INCLINATION":51.9021,"RA_OF_ASC_NODE":121.6983,"ARG_OF_PERICENTER":81.9154,"MEAN_ANOMALY":278.192,"EPHEMERIS_TYPE":0,"NORAD_CAT_ID":68885,"ELEMENT_SET_NO":999,"REV_AT_EPOCH":1203,"BSTAR":0.000003316,"MEAN_MOTION_DOT":-0.00000196,"MEAN_MOTION_DDOT":0},{"OBJECT_NAME":"KUIPER-00505","OBJECT_ID":"2026-095Y","EPOCH":"2026-07-17T22:20:07.507680","CLASSIFICATION_TYPE":"U","MEAN_MOTION":14.79932993,"ECCENTRICITY":0.00006151,"INCLINATION":51.9023,"RA_OF_ASC_NODE":109.7131,"ARG_OF_PERICENTER":95.2883,"MEAN_ANOMALY":264.8149,"EPHEMERIS_TYPE":0,"NORAD_CAT_ID":68886,"ELEMENT_SET_NO":999,"REV_AT_EPOCH":1223,"BSTAR":0.00024381174,"MEAN_MOTION_DOT":0.00001638,"MEAN_MOTION_DDOT":0},{"OBJECT_NAME":"KUIPER-00507","OBJECT_ID":"2026-095Z","EPOCH":"2026-07-17T22:00:01.999584","CLASSIFICATION_TYPE":"U","MEAN_MOTION":14.81204669,"ECCENTRICITY":0.00008277,"INCLINATION":51.8979,"RA_OF_ASC_NODE":99.5071,"ARG_OF_PERICENTER":217.5294,"MEAN_ANOMALY":235.1337,"EPHEMERIS_TYPE":0,"NORAD_CAT_ID":68887,"ELEMENT_SET_NO":999,"REV_AT_EPOCH":584,"BSTAR":-0.012100924,"MEAN_MOTION_DOT":-0.00094002,"MEAN_MOTION_DDOT":0},{"OBJECT_NAME":"KUIPER-00511","OBJECT_ID":"2026-095AA","EPOCH":"2026-07-17T22:00:01.999584","CLASSIFICATION_TYPE":"U","MEAN_MOTION":15.13639153,"ECCENTRICITY":0.00061542,"INCLINATION":51.8907,"RA_OF_ASC_NODE":94.5953,"ARG_OF_PERICENTER":44.2386,"MEAN_ANOMALY":335.6953,"EPHEMERIS_TYPE":0,"NORAD_CAT_ID":68888,"ELEMENT_SET_NO":999,"REV_AT_EPOCH":192,"BSTAR":-0.10793073,"MEAN_MOTION_DOT":-0.0179173,"MEAN_MOTION_DDOT":0},{"OBJECT_NAME":"KUIPER-00512","OBJECT_ID":"2026-095AB","EPOCH":"2026-07-17T18:13:07.922208","CLASSIFICATION_TYPE":"U","MEAN_MOTION":14.79926835,"ECCENTRICITY":0.00009109,"INCLINATION":51.9024,"RA_OF_ASC_NODE":112.9708,"ARG_OF_PERICENTER":105.6985,"MEAN_ANOMALY":254.4078,"EPHEMERIS_TYPE":0,"NORAD_CAT_ID":68889,"ELEMENT_SET_NO":999,"REV_AT_EPOCH":1217,"BSTAR":0.000014410844,"MEAN_MOTION_DOT":-0.00000111,"MEAN_MOTION_DDOT":0},{"OBJECT_NAME":"KUIPER-00519","OBJECT_ID":"2026-095AC","EPOCH":"2026-07-17T21:43:12.519264","CLASSIFICATION_TYPE":"U","MEAN_MOTION":14.79942427,"ECCENTRICITY":0.00026185,"INCLINATION":51.9032,"RA_OF_ASC_NODE":102.3867,"ARG_OF_PERICENTER":20.0765,"MEAN_ANOMALY":340.03,"EPHEMERIS_TYPE":0,"NORAD_CAT_ID":68890,"ELEMENT_SET_NO":999,"REV_AT_EPOCH":1233,"BSTAR":0.00022899088,"MEAN_MOTION_DOT":0.00001525,"MEAN_MOTION_DDOT":0},{"OBJECT_NAME":"KUIPER-00521","OBJECT_ID":"2026-095AD","EPOCH":"2026-07-17T22:00:01.999584","CLASSIFICATION_TYPE":"U","MEAN_MOTION":14.95487849,"ECCENTRICITY":0.00030249,"INCLINATION":51.8951,"RA_OF_ASC_NODE":96.515,"ARG_OF_PERICENTER":256.7895,"MEAN_ANOMALY":292.0993,"EPHEMERIS_TYPE":0,"NORAD_CAT_ID":68891,"ELEMENT_SET_NO":999,"REV_AT_EPOCH":498,"BSTAR":-0.0050143355,"MEAN_MOTION_DOT":-0.00055913,"MEAN_MOTION_DDOT":0},{"OBJECT_NAME":"KUIPER-00524","OBJECT_ID":"2026-095AE","EPOCH":"2026-07-17T21:28:36.475968","CLASSIFICATION_TYPE":"U","MEAN_MOTION":14.7641804,"ECCENTRICITY":0.00023347,"INCLINATION":51.8989,"RA_OF_ASC_NODE":103.7473,"ARG_OF_PERICENTER":110.907,"MEAN_ANOMALY":249.2141,"EPHEMERIS_TYPE":0,"NORAD_CAT_ID":68892,"ELEMENT_SET_NO":999,"REV_AT_EPOCH":1231,"BSTAR":0.00015208907,"MEAN_MOTION_DOT":0.00000852,"MEAN_MOTION_DDOT":0},{"OBJECT_NAME":"KUIPER-00370","OBJECT_ID":"2026-098A","EPOCH":"2026-07-17T22:00:01.999584","CLASSIFICATION_TYPE":"U","MEAN_MOTION":15.08700077,"ECCENTRICITY":0.00106679,"INCLINATION":51.8799,"RA_OF_ASC_NODE":283.5666,"ARG_OF_PERICENTER":274.3756,"MEAN_ANOMALY":129.6371,"EPHEMERIS_TYPE":0,"NORAD_CAT_ID":68919,"ELEMENT_SET_NO":999,"REV_AT_EPOCH":534,"BSTAR":-0.0031791116,"MEAN_MOTION_DOT":-0.00050453,"MEAN_MOTION_DDOT":0},{"OBJECT_NAME":"KUIPER-00380","OBJECT_ID":"2026-098B","EPOCH":"2026-07-17T06:13:04.188000","CLASSIFICATION_TYPE":"U","MEAN_MOTION":15.29387868,"ECCENTRICITY":0.0006703,"INCLINATION":51.8746,"RA_OF_ASC_NODE":284.4952,"ARG_OF_PERICENTER":267.7575,"MEAN_ANOMALY":92.2641,"EPHEMERIS_TYPE":0,"NORAD_CAT_ID":68920,"ELEMENT_SET_NO":999,"REV_AT_EPOCH":1194,"BSTAR":-0.000041629,"MEAN_MOTION_DOT":-0.00001565,"MEAN_MOTION_DDOT":0},{"OBJECT_NAME":"KUIPER-00386","OBJECT_ID":"2026-098C","EPOCH":"2026-07-17T22:00:01.999584","CLASSIFICATION_TYPE":"U","MEAN_MOTION":15.20227447,"ECCENTRICITY":0.00020733,"INCLINATION":51.8817,"RA_OF_ASC_NODE":279.714,"ARG_OF_PERICENTER":12.2597,"MEAN_ANOMALY":121.5861,"EPHEMERIS_TYPE":0,"NORAD_CAT_ID":68921,"ELEMENT_SET_NO":999,"REV_AT_EPOCH":547,"BSTAR":-0.003578447,"MEAN_MOTION_DOT":-0.00078115,"MEAN_MOTION_DDOT":0},{"OBJECT_NAME":"KUIPER-00388","OBJECT_ID":"2026-098D","EPOCH":"2026-07-17T22:00:01.999584","CLASSIFICATION_TYPE":"U","MEAN_MOTION":14.80433992,"ECCENTRICITY":0.00074364,"INCLINATION":51.8997,"RA_OF_ASC_NODE":287.0734,"ARG_OF_PERICENTER":288.6605,"MEAN_ANOMALY":32.1284,"EPHEMERIS_TYPE":0,"NORAD_CAT_ID":68922,"ELEMENT_SET_NO":999,"REV_AT_EPOCH":584,"BSTAR":-0.013433795,"MEAN_MOTION_DOT":-0.00102365,"MEAN_MOTION_DDOT":0},{"OBJECT_NAME":"KUIPER-00405","OBJECT_ID":"2026-098E","EPOCH":"2026-07-17T22:00:01.999584","CLASSIFICATION_TYPE":"U","MEAN_MOTION":14.89422402,"ECCENTRICITY":0.00088243,"INCLINATION":51.8988,"RA_OF_ASC_NODE":284.8505,"ARG_OF_PERICENTER":279.7227,"MEAN_ANOMALY":87.5555,"EPHEMERIS_TYPE":0,"NORAD_CAT_ID":68923,"ELEMENT_SET_NO":999,"REV_AT_EPOCH":520,"BSTAR":-0.0097574106,"MEAN_MOTION_DOT":-0.00092757,"MEAN_MOTION_DDOT":0}]}
